[
    {
        "OBJECT_NAME": "BEIDOU-3 M22",
        "OBJECT_ID": "2019-078A",
        "EPOCH": "2026-07-20T21:51:42.681888",
        "MEAN_MOTION": 1.86227204,
        "ECCENTRICITY": 0.00056032,
        "INCLINATION": 53.9028,
        "RA_OF_ASC_NODE": 298.6402,
        "ARG_OF_PERICENTER": 50.2813,
        "MEAN_ANOMALY": 309.8054,
        "EPHEMERIS_TYPE": 0,
        "CLASSIFICATION_TYPE": "U",
        "NORAD_CAT_ID": 44793,
        "ELEMENT_SET_NO": 999,
        "REV_AT_EPOCH": 4527,
        "BSTAR": 0,
        "MEAN_MOTION_DOT": -9.8e-07,
        "MEAN_MOTION_DDOT": 0
    },
    {
        "OBJECT_NAME": "BEIDOU-3 M21",
        "OBJECT_ID": "2019-078B",
        "EPOCH": "2026-07-19T23:26:38.266656",
        "MEAN_MOTION": 1.86227606,
        "ECCENTRICITY": 0.00035251,
        "INCLINATION": 53.877,
        "RA_OF_ASC_NODE": 298.6333,
        "ARG_OF_PERICENTER": 49.76,
        "MEAN_ANOMALY": 310.309,
        "EPHEMERIS_TYPE": 0,
        "CLASSIFICATION_TYPE": "U",
        "NORAD_CAT_ID": 44794,
        "ELEMENT_SET_NO": 999,
        "REV_AT_EPOCH": 4526,
        "BSTAR": 0,
        "MEAN_MOTION_DOT": -9.6e-07,
        "MEAN_MOTION_DDOT": 0
    },
    {
        "OBJECT_NAME": "BEIDOU-3 M19",
        "OBJECT_ID": "2019-090A",
        "EPOCH": "2026-07-22T02:20:41.243712",
        "MEAN_MOTION": 1.86231513,
        "ECCENTRICITY": 0.00165547,
        "INCLINATION": 56.59,
        "RA_OF_ASC_NODE": 61.6363,
        "ARG_OF_PERICENTER": 296.8524,
        "MEAN_ANOMALY": 242.7354,
        "EPHEMERIS_TYPE": 0,
        "CLASSIFICATION_TYPE": "U",
        "NORAD_CAT_ID": 44864,
        "ELEMENT_SET_NO": 999,
        "REV_AT_EPOCH": 4488,
        "BSTAR": 0,
        "MEAN_MOTION_DOT": -7.9e-07,
        "MEAN_MOTION_DDOT": 0
    },
    {
        "OBJECT_NAME": "BEIDOU-3 M20",
        "OBJECT_ID": "2019-090B",
        "EPOCH": "2026-07-21T23:09:05.641632",
        "MEAN_MOTION": 1.86231478,
        "ECCENTRICITY": 0.00142312,
        "INCLINATION": 56.5915,
        "RA_OF_ASC_NODE": 61.6754,
        "ARG_OF_PERICENTER": 312.1692,
        "MEAN_ANOMALY": 227.7948,
        "EPHEMERIS_TYPE": 0,
        "CLASSIFICATION_TYPE": "U",
        "NORAD_CAT_ID": 44865,
        "ELEMENT_SET_NO": 999,
        "REV_AT_EPOCH": 4486,
        "BSTAR": 0,
        "MEAN_MOTION_DOT": -7.9e-07,
        "MEAN_MOTION_DDOT": 0
    },
    {
        "OBJECT_NAME": "BEIDOU-3 G2",
        "OBJECT_ID": "2020-017A",
        "EPOCH": "2026-07-22T15:07:25.609728",
        "MEAN_MOTION": 1.00272691,
        "ECCENTRICITY": 0.00020855,
        "INCLINATION": 2.9347,
        "RA_OF_ASC_NODE": 47.8452,
        "ARG_OF_PERICENTER": 57.4791,
        "MEAN_ANOMALY": 141.9368,
        "EPHEMERIS_TYPE": 0,
        "CLASSIFICATION_TYPE": "U",
        "NORAD_CAT_ID": 45344,
        "ELEMENT_SET_NO": 999,
        "REV_AT_EPOCH": 2361,
        "BSTAR": 0,
        "MEAN_MOTION_DOT": -1.39e-06,
        "MEAN_MOTION_DDOT": 0
    },
    {
        "OBJECT_NAME": "BEIDOU-3 G3",
        "OBJECT_ID": "2020-040A",
        "EPOCH": "2026-07-22T15:16:09.771744",
        "MEAN_MOTION": 1.00273366,
        "ECCENTRICITY": 0.00022936,
        "INCLINATION": 2.5325,
        "RA_OF_ASC_NODE": 67.5045,
        "ARG_OF_PERICENTER": 316.0842,
        "MEAN_ANOMALY": 256.3813,
        "EPHEMERIS_TYPE": 0,
        "CLASSIFICATION_TYPE": "U",
        "NORAD_CAT_ID": 45807,
        "ELEMENT_SET_NO": 999,
        "REV_AT_EPOCH": 2242,
        "BSTAR": 0,
        "MEAN_MOTION_DOT": -3.52e-06,
        "MEAN_MOTION_DDOT": 0
    },
    {
        "OBJECT_NAME": "BEIDOU-3 G4",
        "OBJECT_ID": "2023-066A",
        "EPOCH": "2026-07-22T15:24:31.469760",
        "MEAN_MOTION": 1.0027064,
        "ECCENTRICITY": 0.00051402,
        "INCLINATION": 0.4549,
        "RA_OF_ASC_NODE": 341.027,
        "ARG_OF_PERICENTER": 182.716,
        "MEAN_ANOMALY": 147.832,
        "EPHEMERIS_TYPE": 0,
        "CLASSIFICATION_TYPE": "U",
        "NORAD_CAT_ID": 56564,
        "ELEMENT_SET_NO": 999,
        "REV_AT_EPOCH": 1174,
        "BSTAR": 0,
        "MEAN_MOTION_DOT": -2.77e-06,
        "MEAN_MOTION_DDOT": 0
    },
    {
        "OBJECT_NAME": "BEIDOU-3 M28",
        "OBJECT_ID": "2023-207A",
        "EPOCH": "2026-07-21T15:57:03.009024",
        "MEAN_MOTION": 1.86229818,
        "ECCENTRICITY": 0.00022135,
        "INCLINATION": 55.7837,
        "RA_OF_ASC_NODE": 61.1401,
        "ARG_OF_PERICENTER": 9.0129,
        "MEAN_ANOMALY": 351.0521,
        "EPHEMERIS_TYPE": 0,
        "CLASSIFICATION_TYPE": "U",
        "NORAD_CAT_ID": 58654,
        "ELEMENT_SET_NO": 999,
        "REV_AT_EPOCH": 1748,
        "BSTAR": 0,
        "MEAN_MOTION_DOT": -8.1e-07,
        "MEAN_MOTION_DDOT": 0
    },
    {
        "OBJECT_NAME": "BEIDOU-3 M26",
        "OBJECT_ID": "2023-207B",
        "EPOCH": "2026-07-21T11:05:26.784384",
        "MEAN_MOTION": 1.86229782,
        "ECCENTRICITY": 0.0001673,
        "INCLINATION": 55.7861,
        "RA_OF_ASC_NODE": 61.1336,
        "ARG_OF_PERICENTER": 324.0688,
        "MEAN_ANOMALY": 35.981,
        "EPHEMERIS_TYPE": 0,
        "CLASSIFICATION_TYPE": "U",
        "NORAD_CAT_ID": 58655,
        "ELEMENT_SET_NO": 999,
        "REV_AT_EPOCH": 1746,
        "BSTAR": 0,
        "MEAN_MOTION_DOT": -8.2e-07,
        "MEAN_MOTION_DDOT": 0
    },
    {
        "OBJECT_NAME": "BEIDOU-3 M25",
        "OBJECT_ID": "2024-168B",
        "EPOCH": "2026-07-21T19:34:10.642080",
        "MEAN_MOTION": 1.86230292,
        "ECCENTRICITY": 0.0003485,
        "INCLINATION": 54.4399,
        "RA_OF_ASC_NODE": 301.0379,
        "ARG_OF_PERICENTER": 291.3786,
        "MEAN_ANOMALY": 63.0121,
        "EPHEMERIS_TYPE": 0,
        "CLASSIFICATION_TYPE": "U",
        "NORAD_CAT_ID": 61186,
        "ELEMENT_SET_NO": 999,
        "REV_AT_EPOCH": 1242,
        "BSTAR": 0,
        "MEAN_MOTION_DOT": -1.01e-06,
        "MEAN_MOTION_DDOT": 0
    },
    {
        "OBJECT_NAME": "BEIDOU-3 M27",
        "OBJECT_ID": "2024-168C",
        "EPOCH": "2026-07-19T10:07:53.508576",
        "MEAN_MOTION": 1.86230211,
        "ECCENTRICITY": 8.576e-05,
        "INCLINATION": 54.4377,
        "RA_OF_ASC_NODE": 301.1038,
        "ARG_OF_PERICENTER": 40.8164,
        "MEAN_ANOMALY": 284.0569,
        "EPHEMERIS_TYPE": 0,
        "CLASSIFICATION_TYPE": "U",
        "NORAD_CAT_ID": 61187,
        "ELEMENT_SET_NO": 999,
        "REV_AT_EPOCH": 985,
        "BSTAR": 0,
        "MEAN_MOTION_DOT": -9.6e-07,
        "MEAN_MOTION_DDOT": 0
    }
]
